XRISM                   
1 57800U 23137A   24266.59116918  .00007395  00000+0  53154-3 0  9990
2 57800  31.0020 111.9003 0009198  90.1852 269.9838 15.02891844 57262
